{"type": "FeatureCollection", "features": [ {"type": "Feature", "properties": {"norad_id": 67059, "name": "HULIANWANG DIGUI-119", "group": "last-30-days", "lat": -46.691147460688065, "lon": -83.03713008571006, "alt_km": 801.2220097703048, "timestamp": "2025-12-20T09:36:00.356091+00:00", "meta": {"OBJECT_NAME": "HULIANWANG DIGUI-119", "OBJECT_ID": "2025-295A", "EPOCH": "2025-12-17T11:16:29.850816", "MEAN_MOTION": 14.25569756, "ECCENTRICITY": 0.00138963, "INCLINATION": 50.007, "RA_OF_ASC_NODE": 352.2731, "ARG_OF_PERICENTER": 264.5159, "MEAN_ANOMALY": 95.417, "EPHEMERIS_TYPE": 0, "CLASSIFICATION_TYPE": "U", "NORAD_CAT_ID": 67059, "ELEMENT_SET_NO": 999, "REV_AT_EPOCH": 79, "BSTAR": -9.003402e-06, "MEAN_MOTION_DOT": -1.82e-06, "MEAN_MOTION_DDOT": 0}, "tle": {"line1": "1 67059U 25295A   25351.46978994 -.00000182  00000+0 -90034-5 0  9995", "line2": "2 67059  50.0070 352.2731 0013896 264.5159  95.4170 14.25569756   795"}}, "geometry": {"type": "Point", "coordinates": [-83.03713008571006, -46.691147460688065]}}, {"type": "Feature", "properties": {"norad_id": 67060, "name": "HULIANWANG DIGUI-120", "group": "last-30-days", "lat": -45.116150227667, "lon": -77.55724213820875, "alt_km": 801.4103703870724, "timestamp": "2025-12-20T09:36:00.356101+00:00", "meta": {"OBJECT_NAME": "HULIANWANG DIGUI-120", "OBJECT_ID": "2025-295B", "EPOCH": "2025-12-15T17:12:24.401376", "MEAN_MOTION": 14.25706335, "ECCENTRICITY": 0.00132237, "INCLINATION": 50.005, "RA_OF_ASC_NODE": 359.6709, "ARG_OF_PERICENTER": 257.265, "MEAN_ANOMALY": 102.6786, "EPHEMERIS_TYPE": 0, "CLASSIFICATION_TYPE": "U", "NORAD_CAT_ID": 67060, "ELEMENT_SET_NO": 999, "REV_AT_EPOCH": 54, "BSTAR": 6.6896441e-05, "MEAN_MOTION_DOT": 0, "MEAN_MOTION_DDOT": 0}, "tle": {"line1": "1 67060U 25295B   25349.71694909  .00000000  00000+0  66896-4 0  9998", "line2": "2 67060  50.0050 359.6709 0013223 257.2650 102.6786 14.25706335   543"}}, "geometry": {"type": "Point", "coordinates": [-77.55724213820875, -45.116150227667]}}, {"type": "Feature", "properties": {"norad_id": 67061, "name": "HULIANWANG DIGUI-121", "group": "last-30-days", "lat": -44.89777709237225, "lon": -76.90638639356456, "alt_km": 801.3741324725152, "timestamp": "2025-12-20T09:36:00.356113+00:00", "meta": {"OBJECT_NAME": "HULIANWANG DIGUI-121", "OBJECT_ID": "2025-295C", "EPOCH": "2025-12-15T17:12:22.292352", "MEAN_MOTION": 14.25729079, "ECCENTRICITY": 0.00132682, "INCLINATION": 50.0012, "RA_OF_ASC_NODE": 359.6606, "ARG_OF_PERICENTER": 256.3366, "MEAN_ANOMALY": 103.6071, "EPHEMERIS_TYPE": 0, "CLASSIFICATION_TYPE": "U", "NORAD_CAT_ID": 67061, "ELEMENT_SET_NO": 999, "REV_AT_EPOCH": 54, "BSTAR": 6.6638352e-05, "MEAN_MOTION_DOT": -1e-08, "MEAN_MOTION_DDOT": 0}, "tle": {"line1": "1 67061U 25295C   25349.71692468 -.00000001  00000+0  66638-4 0  9993", "line2": "2 67061  50.0012 359.6606 0013268 256.3366 103.6071 14.25729079   549"}}, "geometry": {"type": "Point", "coordinates": [-76.90638639356456, -44.89777709237225]}}, {"type": "Feature", "properties": {"norad_id": 67062, "name": "HULIANWANG DIGUI-122", "group": "last-30-days", "lat": -44.505807952451484, "lon": -75.70835903175907, "alt_km": 801.0306915709762, "timestamp": "2025-12-20T09:36:00.356125+00:00", "meta": {"OBJECT_NAME": "HULIANWANG DIGUI-122", "OBJECT_ID": "2025-295D", "EPOCH": "2025-12-20T04:51:46.118304", "MEAN_MOTION": 14.25755607, "ECCENTRICITY": 0.0013164, "INCLINATION": 50.0054, "RA_OF_ASC_NODE": 340.7259, "ARG_OF_PERICENTER": 279.5231, "MEAN_ANOMALY": 80.4195, "EPHEMERIS_TYPE": 0, "CLASSIFICATION_TYPE": "U", "NORAD_CAT_ID": 67062, "ELEMENT_SET_NO": 999, "REV_AT_EPOCH": 118, "BSTAR": 0.00010552, "MEAN_MOTION_DOT": 9.2e-07, "MEAN_MOTION_DDOT": 0}, "tle": {"line1": "1 67062U 25295D   25354.20261711  .00000092  00000+0  10552-3 0  9999", "line2": "2 67062  50.0054 340.7259 0013164 279.5231  80.4195 14.25755607  1180"}}, "geometry": {"type": "Point", "coordinates": [-75.70835903175907, -44.505807952451484]}}, {"type": "Feature", "properties": {"norad_id": 67063, "name": "HULIANWANG DIGUI-123", "group": "last-30-days", "lat": -42.65748086913533, "lon": -70.77980549824228, "alt_km": 801.195629569912, "timestamp": "2025-12-20T09:36:00.356135+00:00", "meta": {"OBJECT_NAME": "HULIANWANG DIGUI-123", "OBJECT_ID": "2025-295E", "EPOCH": "2025-12-20T04:50:40.233984", "MEAN_MOTION": 14.25888399, "ECCENTRICITY": 0.0012479, "INCLINATION": 50.0061, "RA_OF_ASC_NODE": 340.7243, "ARG_OF_PERICENTER": 278.7083, "MEAN_ANOMALY": 81.2417, "EPHEMERIS_TYPE": 0, "CLASSIFICATION_TYPE": "U", "NORAD_CAT_ID": 67063, "ELEMENT_SET_NO": 999, "REV_AT_EPOCH": 118, "BSTAR": 0.00010184, "MEAN_MOTION_DOT": 8.4e-07, "MEAN_MOTION_DDOT": 0}, "tle": {"line1": "1 67063U 25295E   25354.20185456  .00000084  00000+0  10184-3 0  9993", "line2": "2 67063  50.0061 340.7243 0012479 278.7083  81.2417 14.25888399  1187"}}, "geometry": {"type": "Point", "coordinates": [-70.77980549824228, -42.65748086913533]}}, {"type": "Feature", "properties": {"norad_id": 67064, "name": "HULIANWANG DIGUI-124", "group": "last-30-days", "lat": -41.737375188723625, "lon": -68.63202290226646, "alt_km": 801.6186655457341, "timestamp": "2025-12-20T09:36:00.356145+00:00", "meta": {"OBJECT_NAME": "HULIANWANG DIGUI-124", "OBJECT_ID": "2025-295F", "EPOCH": "2025-12-20T04:50:10.120128", "MEAN_MOTION": 14.25949274, "ECCENTRICITY": 0.0012093, "INCLINATION": 50.0035, "RA_OF_ASC_NODE": 340.7088, "ARG_OF_PERICENTER": 273.4294, "MEAN_ANOMALY": 86.5237, "EPHEMERIS_TYPE": 0, "CLASSIFICATION_TYPE": "U", "NORAD_CAT_ID": 67064, "ELEMENT_SET_NO": 999, "REV_AT_EPOCH": 118, "BSTAR": -0.00018671, "MEAN_MOTION_DOT": -6.09e-06, "MEAN_MOTION_DDOT": 0}, "tle": {"line1": "1 67064U 25295F   25354.20150602 -.00000609  00000+0 -18671-3 0  9993", "line2": "2 67064  50.0035 340.7088 0012093 273.4294  86.5237 14.25949274  1182"}}, "geometry": {"type": "Point", "coordinates": [-68.63202290226646, -41.737375188723625]}}, {"type": "Feature", "properties": {"norad_id": 67065, "name": "HULIANWANG DIGUI-125", "group": "last-30-days", "lat": -41.67137091840512, "lon": -68.4895479366666, "alt_km": 801.1374284329795, "timestamp": "2025-12-20T09:36:00.356157+00:00", "meta": {"OBJECT_NAME": "HULIANWANG DIGUI-125", "OBJECT_ID": "2025-295G", "EPOCH": "2025-12-20T04:50:07.838304", "MEAN_MOTION": 14.25954033, "ECCENTRICITY": 0.0012271, "INCLINATION": 50.0011, "RA_OF_ASC_NODE": 340.7071, "ARG_OF_PERICENTER": 279.4128, "MEAN_ANOMALY": 80.5399, "EPHEMERIS_TYPE": 0, "CLASSIFICATION_TYPE": "U", "NORAD_CAT_ID": 67065, "ELEMENT_SET_NO": 999, "REV_AT_EPOCH": 118, "BSTAR": 9.7749e-05, "MEAN_MOTION_DOT": 7.5e-07, "MEAN_MOTION_DDOT": 0}, "tle": {"line1": "1 67065U 25295G   25354.20147961  .00000075  00000+0  97749-4 0  9997", "line2": "2 67065  50.0011 340.7071 0012271 279.4128  80.5399 14.25954033  1181"}}, "geometry": {"type": "Point", "coordinates": [-68.4895479366666, -41.67137091840512]}}, {"type": "Feature", "properties": {"norad_id": 67066, "name": "HULIANWANG DIGUI-126", "group": "last-30-days", "lat": -39.30977536246615, "lon": -63.56858845861913, "alt_km": 801.5297545950962, "timestamp": "2025-12-20T09:36:00.356167+00:00", "meta": {"OBJECT_NAME": "HULIANWANG DIGUI-126", "OBJECT_ID": "2025-295H", "EPOCH": "2025-12-20T04:48:55.302048", "MEAN_MOTION": 14.26097009, "ECCENTRICITY": 0.0011437, "INCLINATION": 50.0014, "RA_OF_ASC_NODE": 340.7019, "ARG_OF_PERICENTER": 276.4832, "MEAN_ANOMALY": 83.478, "EPHEMERIS_TYPE": 0, "CLASSIFICATION_TYPE": "U", "NORAD_CAT_ID": 67066, "ELEMENT_SET_NO": 999, "REV_AT_EPOCH": 118, "BSTAR": 9.517e-05, "MEAN_MOTION_DOT": 6.9e-07, "MEAN_MOTION_DDOT": 0}, "tle": {"line1": "1 67066U 25295H   25354.20064007  .00000069  00000+0  95170-4 0  9996", "line2": "2 67066  50.0014 340.7019 0011437 276.4832  83.4780 14.26097009  1187"}}, "geometry": {"type": "Point", "coordinates": [-63.56858845861913, -39.30977536246615]}}, {"type": "Feature", "properties": {"norad_id": 67067, "name": "HULIANWANG DIGUI-127", "group": "last-30-days", "lat": -36.91784525788792, "lon": -59.243458732244896, "alt_km": 801.2662811477176, "timestamp": "2025-12-20T09:36:00.356177+00:00", "meta": {"OBJECT_NAME": "HULIANWANG DIGUI-127", "OBJECT_ID": "2025-295J", "EPOCH": "2025-12-20T04:47:47.219712", "MEAN_MOTION": 14.2625118, "ECCENTRICITY": 0.0010891, "INCLINATION": 50.0054, "RA_OF_ASC_NODE": 340.7049, "ARG_OF_PERICENTER": 280.2545, "MEAN_ANOMALY": 79.7141, "EPHEMERIS_TYPE": 0, "CLASSIFICATION_TYPE": "U", "NORAD_CAT_ID": 67067, "ELEMENT_SET_NO": 999, "REV_AT_EPOCH": 118, "BSTAR": -0.00025972, "MEAN_MOTION_DOT": -7.88e-06, "MEAN_MOTION_DDOT": 0}, "tle": {"line1": "1 67067U 25295J   25354.19985208 -.00000788  00000+0 -25972-3 0  9992", "line2": "2 67067  50.0054 340.7049 0010891 280.2545  79.7141 14.26251180  1183"}}, "geometry": {"type": "Point", "coordinates": [-59.243458732244896, -36.91784525788792]}}, {"type": "Feature", "properties": {"norad_id": 67068, "name": "CZ-12 R/B", "group": "last-30-days", "lat": 27.1208883359716, "lon": 4.515224712923277, "alt_km": 775.3821622356581, "timestamp": "2025-12-20T09:36:00.356188+00:00", "meta": {"OBJECT_NAME": "CZ-12 R/B", "OBJECT_ID": "2025-295K", "EPOCH": "2025-12-19T23:26:40.461216", "MEAN_MOTION": 14.41129023, "ECCENTRICITY": 0.005688, "INCLINATION": 49.9944, "RA_OF_ASC_NODE": 340.8721, "ARG_OF_PERICENTER": 161.8417, "MEAN_ANOMALY": 198.4551, "EPHEMERIS_TYPE": 0, "CLASSIFICATION_TYPE": "U", "NORAD_CAT_ID": 67068, "ELEMENT_SET_NO": 999, "REV_AT_EPOCH": 115, "BSTAR": 1.1975e-05, "MEAN_MOTION_DOT": -1.29e-06, "MEAN_MOTION_DDOT": 0}, "tle": {"line1": "1 67068U 25295K   25353.97685719 -.00000129  00000+0  11975-4 0  9999", "line2": "2 67068  49.9944 340.8721 0056880 161.8417 198.4551 14.41129023  1155"}}, "geometry": {"type": "Point", "coordinates": [4.515224712923277, 27.1208883359716]}}]}